start=new Date('2022-08-30T00:00:00.000Z').valueOf();
sats=[{"TLE_LINE2":"2 52129  53.2141  90.1498 0001911  71.2689 349.2691 15.08831072  1306","ECCENTRICITY":"0.00019110","GP_ID":"211287688","RCS_SIZE":"LARGE","ARG_OF_PERICENTER":"71.2689","MEAN_ANOMALY":"349.2691","OBJECT_NAME":"STARLINK-3661","FILE":"3551093","INCLINATION":"53.2141","ELEMENT_SET_NO":"999","REF_FRAME":"TEME","MEAN_ELEMENT_THEORY":"SGP4","CENTER_NAME":"EARTH","EPHEMERIS_TYPE":"0","TLE_LINE1":"1 52129U 22029AT  22241.91667824  .00005951  00000-0  39178-3 0  9999","DECAY_DATE":null,"MEAN_MOTION":"15.08831072","SITE":"AFETR","TIME_SYSTEM":"UTC","COUNTRY_CODE":"US","PERIOD":"95.438","APOAPSIS":"541.095","CLASSIFICATION_TYPE":"U","OBJECT_TYPE":"PAYLOAD","NORAD_CAT_ID":"52129","MEAN_MOTION_DDOT":"0.0000000000000","RA_OF_ASC_NODE":"90.1498","LAUNCH_DATE":"2022-03-19","EPOCH":"2022-08-29T22:00:00.999936","OBJECT_ID":"2022-029AT","REV_AT_EPOCH":"130","BSTAR":"0.00039178000000","MEAN_MOTION_DOT":"0.00005951","SEMIMAJOR_AXIS":"6917.908","PERIAPSIS":"538.451"},{"PERIAPSIS":"538.576","SEMIMAJOR_AXIS":"6917.897","MEAN_MOTION_DOT":"0.00005339","REV_AT_EPOCH":"130","BSTAR":"0.00035336000000","OBJECT_ID":"2022-029AV","LAUNCH_DATE":"2022-03-19","RA_OF_ASC_NODE":"90.1482","EPOCH":"2022-08-29T22:00:00.999936","MEAN_MOTION_DDOT":"0.0000000000000","NORAD_CAT_ID":"52131","OBJECT_TYPE":"PAYLOAD","CLASSIFICATION_TYPE":"U","APOAPSIS":"540.948","PERIOD":"95.438","COUNTRY_CODE":"US","TIME_SYSTEM":"UTC","SITE":"AFETR","MEAN_MOTION":"15.08834552","DECAY_DATE":null,"TLE_LINE1":"1 52131U 22029AV  22241.91667824  .00005339  00000-0  35336-3 0  9994","EPHEMERIS_TYPE":"0","CENTER_NAME":"EARTH","MEAN_ELEMENT_THEORY":"SGP4","REF_FRAME":"TEME","ELEMENT_SET_NO":"999","INCLINATION":"53.2162","FILE":"3551093","OBJECT_NAME":"STARLINK-3711","ARG_OF_PERICENTER":"66.6515","MEAN_ANOMALY":"13.8451","RCS_SIZE":"LARGE","ECCENTRICITY":"0.00017140","GP_ID":"211288939","TLE_LINE2":"2 52131  53.2162  90.1482 0001714  66.6515  13.8451 15.08834552  1306"},{"INCLINATION":"53.2152","FILE":"3551093","SITE":"AFETR","TLE_LINE1":"1 52132U 22029AW  22241.91667824  .00002595  00000-0  18111-3 0  9998","MEAN_MOTION":"15.08841131","DECAY_DATE":null,"EPHEMERIS_TYPE":"0","CENTER_NAME":"EARTH","ELEMENT_SET_NO":"999","MEAN_ELEMENT_THEORY":"SGP4","REF_FRAME":"TEME","GP_ID":"211288690","ECCENTRICITY":"0.00023690","TLE_LINE2":"2 52132  53.2152  90.1552 0002369  59.2227 341.3119 15.08841131  1300","ARG_OF_PERICENTER":"59.2227","MEAN_ANOMALY":"341.3119","OBJECT_NAME":"STARLINK-3718","RCS_SIZE":"LARGE","LAUNCH_DATE":"2022-03-19","RA_OF_ASC_NODE":"90.1552","EPOCH":"2022-08-29T22:00:00.999936","MEAN_MOTION_DDOT":"0.0000000000000","NORAD_CAT_ID":"52132","OBJECT_TYPE":"PAYLOAD","SEMIMAJOR_AXIS":"6917.877","PERIAPSIS":"538.103","REV_AT_EPOCH":"130","BSTAR":"0.00018111000000","MEAN_MOTION_DOT":"0.00002595","OBJECT_ID":"2022-029AW","PERIOD":"95.437","COUNTRY_CODE":"US","TIME_SYSTEM":"UTC","CLASSIFICATION_TYPE":"U","APOAPSIS":"541.381"},{"TLE_LINE2":"2 52133  53.2162  90.1470 0001716  66.9481  53.6089 15.08831469  1305","ECCENTRICITY":"0.00017160","GP_ID":"211287438","OBJECT_NAME":"STARLINK-3707","ARG_OF_PERICENTER":"66.9481","MEAN_ANOMALY":"53.6089","RCS_SIZE":"LARGE","FILE":"3551093","INCLINATION":"53.2162","DECAY_DATE":null,"MEAN_MOTION":"15.08831469","TLE_LINE1":"1 52133U 22029AX  22241.91667824  .00006003  00000-0  39506-3 0  9998","SITE":"AFETR","REF_FRAME":"TEME","MEAN_ELEMENT_THEORY":"SGP4","ELEMENT_SET_NO":"999","EPHEMERIS_TYPE":"0","CENTER_NAME":"EARTH","COUNTRY_CODE":"US","PERIOD":"95.438","TIME_SYSTEM":"UTC","CLASSIFICATION_TYPE":"U","APOAPSIS":"540.959","MEAN_MOTION_DDOT":"0.0000000000000","LAUNCH_DATE":"2022-03-19","EPOCH":"2022-08-29T22:00:00.999936","RA_OF_ASC_NODE":"90.1470","NORAD_CAT_ID":"52133","OBJECT_TYPE":"PAYLOAD","MEAN_MOTION_DOT":"0.00006003","BSTAR":"0.00039506000000","REV_AT_EPOCH":"130","PERIAPSIS":"538.584","SEMIMAJOR_AXIS":"6917.906","OBJECT_ID":"2022-029AX"},{"SEMIMAJOR_AXIS":"6917.888","PERIAPSIS":"538.494","REV_AT_EPOCH":"130","BSTAR":"0.00036757000000","MEAN_MOTION_DOT":"0.00005566","OBJECT_ID":"2022-029AY","RA_OF_ASC_NODE":"90.1466","LAUNCH_DATE":"2022-03-19","EPOCH":"2022-08-29T22:00:00.999936","MEAN_MOTION_DDOT":"0.0000000000000","NORAD_CAT_ID":"52134","OBJECT_TYPE":"PAYLOAD","CLASSIFICATION_TYPE":"U","APOAPSIS":"541.013","PERIOD":"95.438","COUNTRY_CODE":"US","TIME_SYSTEM":"UTC","SITE":"AFETR","TLE_LINE1":"1 52134U 22029AY  22241.91667824  .00005566  00000-0  36757-3 0  9997","MEAN_MOTION":"15.08837363","DECAY_DATE":null,"EPHEMERIS_TYPE":"0","CENTER_NAME":"EARTH","ELEMENT_SET_NO":"999","MEAN_ELEMENT_THEORY":"SGP4","REF_FRAME":"TEME","INCLINATION":"53.2157","FILE":"3551093","ARG_OF_PERICENTER":"60.5982","MEAN_ANOMALY":"39.9402","OBJECT_NAME":"STARLINK-3721","RCS_SIZE":"LARGE","ECCENTRICITY":"0.00018200","GP_ID":"211288188","TLE_LINE2":"2 52134  53.2157  90.1466 0001820  60.5982  39.9402 15.08837363  1302"},{"MEAN_MOTION_DDOT":"0.0000000000000","LAUNCH_DATE":"2022-03-19","RA_OF_ASC_NODE":"90.1473","EPOCH":"2022-08-29T22:00:00.999936","OBJECT_TYPE":"PAYLOAD","NORAD_CAT_ID":"52135","REV_AT_EPOCH":"130","BSTAR":"0.00052082000000","MEAN_MOTION_DOT":"0.00008009","SEMIMAJOR_AXIS":"6917.900","PERIAPSIS":"538.393","OBJECT_ID":"2022-029AZ","COUNTRY_CODE":"US","PERIOD":"95.438","TIME_SYSTEM":"UTC","CLASSIFICATION_TYPE":"U","APOAPSIS":"541.137","FILE":"3551093","INCLINATION":"53.2173","TLE_LINE1":"1 52135U 22029AZ  22241.91667824  .00008009  00000-0  52082-3 0  9992","DECAY_DATE":null,"MEAN_MOTION":"15.08833527","SITE":"AFETR","ELEMENT_SET_NO":"999","REF_FRAME":"TEME","MEAN_ELEMENT_THEORY":"SGP4","CENTER_NAME":"EARTH","EPHEMERIS_TYPE":"0","TLE_LINE2":"2 52135  53.2173  90.1473 0001983  57.6243 122.9051 15.08833527  1307","GP_ID":"211288440","ECCENTRICITY":"0.00019830","MEAN_ANOMALY":"122.9051","ARG_OF_PERICENTER":"57.6243","OBJECT_NAME":"STARLINK-3729","RCS_SIZE":"LARGE"},{"INCLINATION":"53.2164","FILE":"3551093","EPHEMERIS_TYPE":"0","CENTER_NAME":"EARTH","MEAN_ELEMENT_THEORY":"SGP4","REF_FRAME":"TEME","ELEMENT_SET_NO":"999","SITE":"AFETR","DECAY_DATE":null,"MEAN_MOTION":"15.08819383","TLE_LINE1":"1 52136U 22029BA  22241.91667824  .00006938  00000-0  45381-3 0  9996","GP_ID":"211289190","ECCENTRICITY":"0.00018370","TLE_LINE2":"2 52136  53.2164  90.1467 0001837  64.2256  76.3093 15.08819383  1309","RCS_SIZE":"LARGE","OBJECT_NAME":"STARLINK-3720","ARG_OF_PERICENTER":"64.2256","MEAN_ANOMALY":"76.3093","OBJECT_TYPE":"PAYLOAD","NORAD_CAT_ID":"52136","LAUNCH_DATE":"2022-03-19","EPOCH":"2022-08-29T22:00:00.999936","RA_OF_ASC_NODE":"90.1467","MEAN_MOTION_DDOT":"0.0000000000000","OBJECT_ID":"2022-029BA","PERIAPSIS":"538.538","SEMIMAJOR_AXIS":"6917.943","MEAN_MOTION_DOT":"0.00006938","REV_AT_EPOCH":"130","BSTAR":"0.00045381000000","TIME_SYSTEM":"UTC","PERIOD":"95.439","COUNTRY_CODE":"US","APOAPSIS":"541.079","CLASSIFICATION_TYPE":"U"},{"RCS_SIZE":"LARGE","OBJECT_NAME":"STARLINK-3733","ARG_OF_PERICENTER":"63.0421","MEAN_ANOMALY":"137.5035","TLE_LINE2":"2 52137  53.2173  90.1462 0001817  63.0421 137.5035 15.08838483  1302","ECCENTRICITY":"0.00018170","GP_ID":"211287938","REF_FRAME":"TEME","MEAN_ELEMENT_THEORY":"SGP4","ELEMENT_SET_NO":"999","EPHEMERIS_TYPE":"0","CENTER_NAME":"EARTH","DECAY_DATE":null,"MEAN_MOTION":"15.08838483","TLE_LINE1":"1 52137U 22029BB  22241.91667824  .00009995  00000-0  64522-3 0  9991","SITE":"AFETR","FILE":"3551093","INCLINATION":"53.2173","APOAPSIS":"541.007","CLASSIFICATION_TYPE":"U","TIME_SYSTEM":"UTC","COUNTRY_CODE":"US","PERIOD":"95.438","OBJECT_ID":"2022-029BB","MEAN_MOTION_DOT":"0.00009995","REV_AT_EPOCH":"130","BSTAR":"0.00064522000000","PERIAPSIS":"538.493","SEMIMAJOR_AXIS":"6917.885","NORAD_CAT_ID":"52137","OBJECT_TYPE":"PAYLOAD","MEAN_MOTION_DDOT":"0.0000000000000","LAUNCH_DATE":"2022-03-19","EPOCH":"2022-08-29T22:00:00.999936","RA_OF_ASC_NODE":"90.1462"},{"TIME_SYSTEM":"UTC","PERIOD":"95.438","COUNTRY_CODE":"US","APOAPSIS":"540.901","CLASSIFICATION_TYPE":"U","OBJECT_TYPE":"PAYLOAD","NORAD_CAT_ID":"52138","LAUNCH_DATE":"2022-03-19","RA_OF_ASC_NODE":"90.1478","EPOCH":"2022-08-29T22:00:00.999936","MEAN_MOTION_DDOT":"0.0000000000000","OBJECT_ID":"2022-029BC","SEMIMAJOR_AXIS":"6917.892","PERIAPSIS":"538.612","REV_AT_EPOCH":"130","BSTAR":"0.00045113000000","MEAN_MOTION_DOT":"0.00006898","ECCENTRICITY":"0.00016540","GP_ID":"211287689","TLE_LINE2":"2 52138  53.2170  90.1478 0001654  65.5954  94.9479 15.08836360  1304","RCS_SIZE":"LARGE","MEAN_ANOMALY":"94.9479","ARG_OF_PERICENTER":"65.5954","OBJECT_NAME":"STARLINK-3723","INCLINATION":"53.2170","FILE":"3551093","CENTER_NAME":"EARTH","EPHEMERIS_TYPE":"0","ELEMENT_SET_NO":"999","MEAN_ELEMENT_THEORY":"SGP4","REF_FRAME":"TEME","SITE":"AFETR","TLE_LINE1":"1 52138U 22029BC  22241.91667824  .00006898  00000-0  45113-3 0  9996","DECAY_DATE":null,"MEAN_MOTION":"15.08836360"},{"GP_ID":"211288940","ECCENTRICITY":"0.00019580","TLE_LINE2":"2 52139  53.2152 100.1514 0001958  58.1159 207.4323 15.08826958  1301","RCS_SIZE":"LARGE","MEAN_ANOMALY":"207.4323","ARG_OF_PERICENTER":"58.1159","OBJECT_NAME":"STARLINK-3730","INCLINATION":"53.2152","FILE":"3551093","CENTER_NAME":"EARTH","EPHEMERIS_TYPE":"0","ELEMENT_SET_NO":"999","MEAN_ELEMENT_THEORY":"SGP4","REF_FRAME":"TEME","SITE":"AFETR","TLE_LINE1":"1 52139U 22029BD  22241.91667824  .00001980  00000-0  14252-3 0  9994","MEAN_MOTION":"15.08826958","DECAY_DATE":null,"TIME_SYSTEM":"UTC","PERIOD":"95.438","COUNTRY_CODE":"US","APOAPSIS":"541.140","CLASSIFICATION_TYPE":"U","NORAD_CAT_ID":"52139","OBJECT_TYPE":"PAYLOAD","LAUNCH_DATE":"2022-03-19","EPOCH":"2022-08-29T22:00:00.999936","RA_OF_ASC_NODE":"100.1514","MEAN_MOTION_DDOT":"0.0000000000000","OBJECT_ID":"2022-029BD","SEMIMAJOR_AXIS":"6917.920","PERIAPSIS":"538.431","REV_AT_EPOCH":"130","BSTAR":"0.00014252000000","MEAN_MOTION_DOT":"0.00001980"}];
